SHIJIAN-16 (SJ-16)      
1 39358U 13057A   25324.33935873  .00002251  00000+0  22488-3 0  9997
2 39358  74.9746  32.0350 0016719  13.5748 346.5886 14.91889807655193
SL-4 R/B                
1 39679U 14021B   25323.58773422  .00013217  00000+0  32189-3 0  9994
2 39679  51.6056 153.0411 0103601  62.9493 298.2018 15.35861717639336
ALOS-2                  
1 39766U 14029A   25324.28893521  .00002161  00000+0  29614-3 0  9995
2 39766  97.9235  59.4542 0001418  99.6239 260.5133 14.79470840620696
YAOGAN-29               
1 41038U 15069A   25324.34939907  .00000577  00000+0  77986-4 0  9996
2 41038  98.0241 347.4469 0001712  34.8193 325.3132 14.82847286539677
ASTRO-H (HITOMI)        
1 41337U 16012A   25324.13779938  .00002933  00000+0  17441-3 0  9997
2 41337  31.0014 343.0560 0009827 309.5625  50.4144 15.09153579535664
HXMT (HUIYAN)           
1 42758U 17034A   25324.25901810  .00008041  00000+0  41757-3 0  9992
2 42758  43.0151 264.3511 0034163 263.3409  96.3550 15.15938933465929
CZ-2C R/B               
1 43521U 18054D   25324.30956659  .00097848  00000+0  79178-3 0  9992
2 43521  35.1362 332.4148 0022550 280.1277  79.6911 15.69170115411525
SAOCOM 1A               
1 43641U 18076A   25324.25836743  .00000657  00000+0  89088-4 0  9998
2 43641  97.8852 149.0071 0001557  91.7989 268.3403 14.82141666385159
H-2A R/B                
1 43682U 18084L   25324.09904463  .00017118  00000+0  47951-3 0  9991
2 43682  98.8787 153.5060 0028930  43.3973 316.9537 15.36299517388925
SAOCOM 1B               
1 46265U 20059A   25324.28965801  .00000206  00000+0  32406-4 0  9990
2 46265  97.8848 148.1398 0001350  89.6728 270.4640 14.82149770282549
CSS (TIANHE)            
1 48274U 21035A   25324.22559677  .00019350  00000+0  24189-3 0  9999
2 48274  41.4653 153.3001 0007474 201.5660 158.4864 15.59337031260512
