CCSDS_OMM_VERS = 2.0
CREATION_DATE  = 
ORIGINATOR     = 

OBJECT_NAME    = SHIJIAN-16 (SJ-16)
OBJECT_ID      = 2013-057A
CENTER_NAME    = EARTH
REF_FRAME      = TEME
TIME_SYSTEM    = UTC
MEAN_ELEMENT_THEORY = SGP/SGP4

EPOCH          = 2025-11-20T08:08:40.594272
MEAN_MOTION    = 14.91889807
ECCENTRICITY   = .0016719
INCLINATION    = 74.9746
RA_OF_ASC_NODE = 32.0350
ARG_OF_PERICENTER = 13.5748
MEAN_ANOMALY   = 346.5886

EPHEMERIS_TYPE = 0
CLASSIFICATION_TYPE = U
NORAD_CAT_ID   = 39358
ELEMENT_SET_NO = 999
REV_AT_EPOCH   = 65519
BSTAR          = .22488253E-3
MEAN_MOTION_DOT = .2251E-4
MEAN_MOTION_DDOT = 0

CCSDS_OMM_VERS = 2.0
CREATION_DATE  = 
ORIGINATOR     = 

OBJECT_NAME    = SL-4 R/B
OBJECT_ID      = 2014-021B
CENTER_NAME    = EARTH
REF_FRAME      = TEME
TIME_SYSTEM    = UTC
MEAN_ELEMENT_THEORY = SGP/SGP4

EPOCH          = 2025-11-19T14:06:20.236608
MEAN_MOTION    = 15.35861717
ECCENTRICITY   = .0103601
INCLINATION    = 51.6056
RA_OF_ASC_NODE = 153.0411
ARG_OF_PERICENTER = 62.9493
MEAN_ANOMALY   = 298.2018

EPHEMERIS_TYPE = 0
CLASSIFICATION_TYPE = U
NORAD_CAT_ID   = 39679
ELEMENT_SET_NO = 999
REV_AT_EPOCH   = 63933
BSTAR          = .32189E-3
MEAN_MOTION_DOT = .13217E-3
MEAN_MOTION_DDOT = 0

CCSDS_OMM_VERS = 2.0
CREATION_DATE  = 
ORIGINATOR     = 

OBJECT_NAME    = ALOS-2
OBJECT_ID      = 2014-029A
CENTER_NAME    = EARTH
REF_FRAME      = TEME
TIME_SYSTEM    = UTC
MEAN_ELEMENT_THEORY = SGP/SGP4

EPOCH          = 2025-11-20T06:56:04.002144
MEAN_MOTION    = 14.79470840
ECCENTRICITY   = .00014182
INCLINATION    = 97.9235
RA_OF_ASC_NODE = 59.4542
ARG_OF_PERICENTER = 99.6239
MEAN_ANOMALY   = 260.5133

EPHEMERIS_TYPE = 0
CLASSIFICATION_TYPE = U
NORAD_CAT_ID   = 39766
ELEMENT_SET_NO = 999
REV_AT_EPOCH   = 62069
BSTAR          = .29613713E-3
MEAN_MOTION_DOT = .2161E-4
MEAN_MOTION_DDOT = 0

CCSDS_OMM_VERS = 2.0
CREATION_DATE  = 
ORIGINATOR     = 

OBJECT_NAME    = YAOGAN-29
OBJECT_ID      = 2015-069A
CENTER_NAME    = EARTH
REF_FRAME      = TEME
TIME_SYSTEM    = UTC
MEAN_ELEMENT_THEORY = SGP/SGP4

EPOCH          = 2025-11-20T08:23:08.079648
MEAN_MOTION    = 14.82847286
ECCENTRICITY   = .00017128
INCLINATION    = 98.0241
RA_OF_ASC_NODE = 347.4469
ARG_OF_PERICENTER = 34.8193
MEAN_ANOMALY   = 325.3132

EPHEMERIS_TYPE = 0
CLASSIFICATION_TYPE = U
NORAD_CAT_ID   = 41038
ELEMENT_SET_NO = 999
REV_AT_EPOCH   = 53967
BSTAR          = .77985507E-4
MEAN_MOTION_DOT = .577E-5
MEAN_MOTION_DDOT = 0

CCSDS_OMM_VERS = 2.0
CREATION_DATE  = 
ORIGINATOR     = 

OBJECT_NAME    = ASTRO-H (HITOMI)
OBJECT_ID      = 2016-012A
CENTER_NAME    = EARTH
REF_FRAME      = TEME
TIME_SYSTEM    = UTC
MEAN_ELEMENT_THEORY = SGP/SGP4

EPOCH          = 2025-11-20T03:18:25.866432
MEAN_MOTION    = 15.09153579
ECCENTRICITY   = .00098273
INCLINATION    = 31.0014
RA_OF_ASC_NODE = 343.0560
ARG_OF_PERICENTER = 309.5625
MEAN_ANOMALY   = 50.4144

EPHEMERIS_TYPE = 0
CLASSIFICATION_TYPE = U
NORAD_CAT_ID   = 41337
ELEMENT_SET_NO = 999
REV_AT_EPOCH   = 53566
BSTAR          = .1744063E-3
MEAN_MOTION_DOT = .2933E-4
MEAN_MOTION_DDOT = 0

CCSDS_OMM_VERS = 2.0
CREATION_DATE  = 
ORIGINATOR     = 

OBJECT_NAME    = HXMT (HUIYAN)
OBJECT_ID      = 2017-034A
CENTER_NAME    = EARTH
REF_FRAME      = TEME
TIME_SYSTEM    = UTC
MEAN_ELEMENT_THEORY = SGP/SGP4

EPOCH          = 2025-11-20T06:12:59.163840
MEAN_MOTION    = 15.15938933
ECCENTRICITY   = .00341635
INCLINATION    = 43.0151
RA_OF_ASC_NODE = 264.3511
ARG_OF_PERICENTER = 263.3409
MEAN_ANOMALY   = 96.3550

EPHEMERIS_TYPE = 0
CLASSIFICATION_TYPE = U
NORAD_CAT_ID   = 42758
ELEMENT_SET_NO = 999
REV_AT_EPOCH   = 46592
BSTAR          = .41757485E-3
MEAN_MOTION_DOT = .8041E-4
MEAN_MOTION_DDOT = 0

CCSDS_OMM_VERS = 2.0
CREATION_DATE  = 
ORIGINATOR     = 

OBJECT_NAME    = CZ-2C R/B
OBJECT_ID      = 2018-054D
CENTER_NAME    = EARTH
REF_FRAME      = TEME
TIME_SYSTEM    = UTC
MEAN_ELEMENT_THEORY = SGP/SGP4

EPOCH          = 2025-11-20T07:25:46.553376
MEAN_MOTION    = 15.69170115
ECCENTRICITY   = .00225508
INCLINATION    = 35.1362
RA_OF_ASC_NODE = 332.4148
ARG_OF_PERICENTER = 280.1277
MEAN_ANOMALY   = 79.6911

EPHEMERIS_TYPE = 0
CLASSIFICATION_TYPE = U
NORAD_CAT_ID   = 43521
ELEMENT_SET_NO = 999
REV_AT_EPOCH   = 41152
BSTAR          = .79178349E-3
MEAN_MOTION_DOT = .97848E-3
MEAN_MOTION_DDOT = 0

CCSDS_OMM_VERS = 2.0
CREATION_DATE  = 
ORIGINATOR     = 

OBJECT_NAME    = SAOCOM 1A
OBJECT_ID      = 2018-076A
CENTER_NAME    = EARTH
REF_FRAME      = TEME
TIME_SYSTEM    = UTC
MEAN_ELEMENT_THEORY = SGP/SGP4

EPOCH          = 2025-11-20T06:12:02.945952
MEAN_MOTION    = 14.82141666
ECCENTRICITY   = .0001557
INCLINATION    = 97.8852
RA_OF_ASC_NODE = 149.0071
ARG_OF_PERICENTER = 91.7989
MEAN_ANOMALY   = 268.3403

EPHEMERIS_TYPE = 0
CLASSIFICATION_TYPE = U
NORAD_CAT_ID   = 43641
ELEMENT_SET_NO = 999
REV_AT_EPOCH   = 38515
BSTAR          = .89088125E-4
MEAN_MOTION_DOT = .657E-5
MEAN_MOTION_DDOT = 0

CCSDS_OMM_VERS = 2.0
CREATION_DATE  = 
ORIGINATOR     = 

OBJECT_NAME    = H-2A R/B
OBJECT_ID      = 2018-084L
CENTER_NAME    = EARTH
REF_FRAME      = TEME
TIME_SYSTEM    = UTC
MEAN_ELEMENT_THEORY = SGP/SGP4

EPOCH          = 2025-11-20T02:22:37.456032
MEAN_MOTION    = 15.36299517
ECCENTRICITY   = .00289304
INCLINATION    = 98.8787
RA_OF_ASC_NODE = 153.5060
ARG_OF_PERICENTER = 43.3973
MEAN_ANOMALY   = 316.9537

EPHEMERIS_TYPE = 0
CLASSIFICATION_TYPE = U
NORAD_CAT_ID   = 43682
ELEMENT_SET_NO = 999
REV_AT_EPOCH   = 38892
BSTAR          = .47950895E-3
MEAN_MOTION_DOT = .17118E-3
MEAN_MOTION_DDOT = 0

CCSDS_OMM_VERS = 2.0
CREATION_DATE  = 
ORIGINATOR     = 

OBJECT_NAME    = SAOCOM 1B
OBJECT_ID      = 2020-059A
CENTER_NAME    = EARTH
REF_FRAME      = TEME
TIME_SYSTEM    = UTC
MEAN_ELEMENT_THEORY = SGP/SGP4

EPOCH          = 2025-11-20T06:57:06.452064
MEAN_MOTION    = 14.82149770
ECCENTRICITY   = .00013502
INCLINATION    = 97.8848
RA_OF_ASC_NODE = 148.1398
ARG_OF_PERICENTER = 89.6728
MEAN_ANOMALY   = 270.4640

EPHEMERIS_TYPE = 0
CLASSIFICATION_TYPE = U
NORAD_CAT_ID   = 46265
ELEMENT_SET_NO = 999
REV_AT_EPOCH   = 28254
BSTAR          = .32406159E-4
MEAN_MOTION_DOT = .206E-5
MEAN_MOTION_DDOT = 0

CCSDS_OMM_VERS = 2.0
CREATION_DATE  = 
ORIGINATOR     = 

OBJECT_NAME    = CSS (TIANHE)
OBJECT_ID      = 2021-035A
CENTER_NAME    = EARTH
REF_FRAME      = TEME
TIME_SYSTEM    = UTC
MEAN_ELEMENT_THEORY = SGP/SGP4

EPOCH          = 2025-11-20T05:24:51.560928
MEAN_MOTION    = 15.59337031
ECCENTRICITY   = .00074749
INCLINATION    = 41.4653
RA_OF_ASC_NODE = 153.3001
ARG_OF_PERICENTER = 201.5660
MEAN_ANOMALY   = 158.4864

EPHEMERIS_TYPE = 0
CLASSIFICATION_TYPE = U
NORAD_CAT_ID   = 48274
ELEMENT_SET_NO = 999
REV_AT_EPOCH   = 26051
BSTAR          = .24188604E-3
MEAN_MOTION_DOT = .1935E-3
MEAN_MOTION_DDOT = 0

